{
  "norad_id": 66180,
  "name": "STARLINK-35335",
  "history": [
    {
      "epoch": "2026-03-28T13:56:34.372032Z",
      "apogee_km": 475.91352582659783,
      "perigee_km": 474.43184027312236,
      "latitude_deg": 4.5732800871318334e-05,
      "longitude_deg": 122.53466769070556,
      "height_km": 476.11026154170094,
      "semi_major_axis_km": 6853.30968304986,
      "eccentricity": 0.0001081,
      "inclination_deg": 53.1597,
      "raan_deg": 157.6772,
      "arg_perigee_deg": 93.0392,
      "mean_anomaly_deg": 267.0733,
      "mean_motion_rev_day": 15.30214196
    },
    {
      "epoch": "2026-03-29T04:03:04.369248Z",
      "apogee_km": 476.21191360989997,
      "perigee_km": 474.33544976525354,
      "latitude_deg": -2.6945504258517107e-05,
      "longitude_deg": -92.40048356596353,
      "height_km": 476.29094282625005,
      "semi_major_axis_km": 6853.4106816875765,
      "eccentricity": 0.0001369,
      "inclination_deg": 53.1593,
      "raan_deg": 154.9465,
      "arg_perigee_deg": 97.3106,
      "mean_anomaly_deg": 262.805,
      "mean_motion_rev_day": 15.3018037
    },
    {
      "epoch": "2026-03-29T21:17:40.045920Z",
      "apogee_km": 476.1177350167418,
      "perigee_km": 474.3002276624911,
      "latitude_deg": 1.279458508444141e-05,
      "longitude_deg": 4.906338759948375,
      "height_km": 475.9684021626822,
      "semi_major_axis_km": 6853.345981339617,
      "eccentricity": 0.0001326,
      "inclination_deg": 53.1586,
      "raan_deg": 151.6101,
      "arg_perigee_deg": 81.2368,
      "mean_anomaly_deg": 278.8783,
      "mean_motion_rev_day": 15.30202039
    },
    {
      "epoch": "2026-03-29T21:17:40.046784Z",
      "apogee_km": 476.1180091505812,
      "perigee_km": 474.2999535286517,
      "latitude_deg": 9.147545954625942e-06,
      "longitude_deg": 4.906332432757873,
      "height_km": 475.9683603987374,
      "semi_major_axis_km": 6853.345981339617,
      "eccentricity": 0.00013264,
      "inclination_deg": 53.1586,
      "raan_deg": 151.6101,
      "arg_perigee_deg": 81.2368,
      "mean_anomaly_deg": 278.8783,
      "mean_motion_rev_day": 15.30202039
    },
    {
      "epoch": "2026-03-30T11:24:07.969536Z",
      "apogee_km": 476.12491391406274,
      "perigee_km": 474.09347467714906,
      "latitude_deg": 1.4793101082418918e-05,
      "longitude_deg": 149.98030748094394,
      "height_km": 475.82679011904895,
      "semi_major_axis_km": 6853.246194295605,
      "eccentricity": 0.00014821,
      "inclination_deg": 53.1587,
      "raan_deg": 148.8798,
      "arg_perigee_deg": 79.7871,
      "mean_anomaly_deg": 280.3297,
      "mean_motion_rev_day": 15.3023546
    },
    {
      "epoch": "2026-03-30T20:48:26.458560Z",
      "apogee_km": 476.0670230113492,
      "perigee_km": 474.1220758976133,
      "latitude_deg": 1.290752602227942e-05,
      "longitude_deg": 6.697413724771484,
      "height_km": 475.9180990710585,
      "semi_major_axis_km": 6853.231549454481,
      "eccentricity": 0.0001419,
      "inclination_deg": 53.1593,
      "raan_deg": 147.0602,
      "arg_perigee_deg": 85.6202,
      "mean_anomaly_deg": 274.4961,
      "mean_motion_rev_day": 15.30240365
    },
    {
      "epoch": "2026-03-31T20:19:14.799648Z",
      "apogee_km": 476.28454367584436,
      "perigee_km": 474.1805592235496,
      "latitude_deg": -5.083821971960533e-06,
      "longitude_deg": 8.478518284381892,
      "height_km": 475.9221851373521,
      "semi_major_axis_km": 6853.369551449697,
      "eccentricity": 0.0001535,
      "inclination_deg": 53.1578,
      "raan_deg": 142.5084,
      "arg_perigee_deg": 78.6029,
      "mean_anomaly_deg": 281.5144,
      "mean_motion_rev_day": 15.30194145
    },
    {
      "epoch": "2026-04-01T19:50:02.301792Z",
      "apogee_km": 475.94679457795974,
      "perigee_km": 474.42946839384786,
      "latitude_deg": -2.1031416998423973e-05,
      "longitude_deg": 10.2662294277831,
      "height_km": 476.13633726511773,
      "semi_major_axis_km": 6853.3251314859035,
      "eccentricity": 0.0001107,
      "inclination_deg": 53.1562,
      "raan_deg": 137.9597,
      "arg_perigee_deg": 93.8022,
      "mean_anomaly_deg": 266.3105,
      "mean_motion_rev_day": 15.30209022
    },
    {
      "epoch": "2026-04-02T19:20:49.871328Z",
      "apogee_km": 475.88185603340753,
      "perigee_km": 474.34206805661415,
      "latitude_deg": -3.384442160221216e-05,
      "longitude_deg": 12.050660881368675,
      "height_km": 476.0161860890882,
      "semi_major_axis_km": 6853.248962045011,
      "eccentricity": 0.00011234,
      "inclination_deg": 53.1566,
      "raan_deg": 133.408,
      "arg_perigee_deg": 90.4686,
      "mean_anomaly_deg": 269.6443,
      "mean_motion_rev_day": 15.30234533
    },
    {
      "epoch": "2026-04-03T09:27:18.616608Z",
      "apogee_km": 475.9949548270033,
      "perigee_km": 474.50215038593524,
      "latitude_deg": 9.746989482830864e-06,
      "longitude_deg": 157.1203271207389,
      "height_km": 476.0288020598469,
      "semi_major_axis_km": 6853.385552606469,
      "eccentricity": 0.00010891,
      "inclination_deg": 53.1565,
      "raan_deg": 130.6768,
      "arg_perigee_deg": 80.9264,
      "mean_anomaly_deg": 279.186,
      "mean_motion_rev_day": 15.30188786
    },
    {
      "epoch": "2026-04-04T12:06:13.269600Z",
      "apogee_km": 475.97898220322077,
      "perigee_km": 474.3842149653301,
      "latitude_deg": -1.6710965730010596e-05,
      "longitude_deg": 111.14027047024848,
      "height_km": 475.99303521355904,
      "semi_major_axis_km": 6853.318598584275,
      "eccentricity": 0.00011635,
      "inclination_deg": 53.1573,
      "raan_deg": 125.5189,
      "arg_perigee_deg": 83.7715,
      "mean_anomaly_deg": 276.3418,
      "mean_motion_rev_day": 15.3021121
    },
    {
      "epoch": "2026-04-05T08:28:55.124256Z",
      "apogee_km": 476.08657006563135,
      "perigee_km": 474.27085260106924,
      "latitude_deg": 1.7995421011996532e-05,
      "longitude_deg": 160.68429407251696,
      "height_km": 476.16613698890455,
      "semi_major_axis_km": 6853.31571133335,
      "eccentricity": 0.00013247,
      "inclination_deg": 53.1577,
      "raan_deg": 121.5742,
      "arg_perigee_deg": 95.668,
      "mean_anomaly_deg": 264.4472,
      "mean_motion_rev_day": 15.30212177
    },
    {
      "epoch": "2026-04-06T06:25:39.419040Z",
      "apogee_km": 475.75123282754885,
      "perigee_km": 474.54848098416096,
      "latitude_deg": 6.872935999378993e-05,
      "longitude_deg": -173.64800685396403,
      "height_km": 475.8788785518318,
      "semi_major_axis_km": 6853.286856905855,
      "eccentricity": 8.775e-05,
      "inclination_deg": 53.1586,
      "raan_deg": 117.3277,
      "arg_perigee_deg": 73.6312,
      "mean_anomaly_deg": 286.4786,
      "mean_motion_rev_day": 15.30221841
    },
    {
      "epoch": "2026-04-07T18:28:53.260896Z",
      "apogee_km": 476.3573626001871,
      "perigee_km": 474.02448977411314,
      "latitude_deg": 5.592016787576596e-05,
      "longitude_deg": -2.9155736730508885,
      "height_km": 476.1693697793759,
      "semi_major_axis_km": 6853.32792618715,
      "eccentricity": 0.0001702,
      "inclination_deg": 53.1597,
      "raan_deg": 110.3485,
      "arg_perigee_deg": 93.9823,
      "mean_anomaly_deg": 266.1373,
      "mean_motion_rev_day": 15.30208086
    },
    {
      "epoch": "2026-04-08T10:09:25.187616Z",
      "apogee_km": 475.98542228359565,
      "perigee_km": 474.41737845759144,
      "latitude_deg": 3.645390308712685e-05,
      "longitude_deg": 118.27651048688915,
      "height_km": 475.8613411952653,
      "semi_major_axis_km": 6853.338400370593,
      "eccentricity": 0.0001144,
      "inclination_deg": 53.1601,
      "raan_deg": 107.3174,
      "arg_perigee_deg": 72.2983,
      "mean_anomaly_deg": 287.8143,
      "mean_motion_rev_day": 15.30204578
    },
    {
      "epoch": "2026-04-09T06:32:06.611136Z",
      "apogee_km": 476.1027594770849,
      "perigee_km": 474.3266448499526,
      "latitude_deg": 6.70126742825461e-05,
      "longitude_deg": 167.81933084393972,
      "height_km": 476.3847715072131,
      "semi_major_axis_km": 6853.351702163518,
      "eccentricity": 0.00012958,
      "inclination_deg": 53.1612,
      "raan_deg": 103.3697,
      "arg_perigee_deg": 107.8241,
      "mean_anomaly_deg": 252.2902,
      "mean_motion_rev_day": 15.30200123
    },
    {
      "epoch": "2026-04-10T09:11:00.887424Z",
      "apogee_km": 475.9896076167015,
      "perigee_km": 474.3955231597929,
      "latitude_deg": -1.1636895364893971e-06,
      "longitude_deg": 121.8418145086032,
      "height_km": 476.09052739552675,
      "semi_major_axis_km": 6853.329565388247,
      "eccentricity": 0.0001163,
      "inclination_deg": 53.1616,
      "raan_deg": 98.2128,
      "arg_perigee_deg": 89.9688,
      "mean_anomaly_deg": 270.1446,
      "mean_motion_rev_day": 15.30207537
    },
    {
      "epoch": "2026-04-11T16:32:05.203104Z",
      "apogee_km": 476.2594740321474,
      "perigee_km": 474.1746837213541,
      "latitude_deg": 2.952192855414699e-05,
      "longitude_deg": 4.220704841401418,
      "height_km": 476.046856594925,
      "semi_major_axis_km": 6853.3540788767505,
      "eccentricity": 0.0001521,
      "inclination_deg": 53.1607,
      "raan_deg": 92.1472,
      "arg_perigee_deg": 86.2583,
      "mean_anomaly_deg": 273.8592,
      "mean_motion_rev_day": 15.30199327
    },
    {
      "epoch": "2026-04-12T16:02:53.246976Z",
      "apogee_km": 476.36525697456545,
      "perigee_km": 474.0850063261232,
      "latitude_deg": -3.799029577304688e-05,
      "longitude_deg": 6.003312129749023,
      "height_km": 476.01516187417633,
      "semi_major_axis_km": 6853.362131650344,
      "eccentricity": 0.00016636,
      "inclination_deg": 53.1597,
      "raan_deg": 87.5957,
      "arg_perigee_deg": 84.5907,
      "mean_anomaly_deg": 275.5283,
      "mean_motion_rev_day": 15.3019663
    }
  ]
}